{
  "type": "FeatureCollection",
  "features": [
    {
      "type": "Feature",
      "properties": {
        "norad_id": 15362,
        "name": "NOVA 3",
        "group": "nnss",
        "lat": -73.7963651013406,
        "lon": 80.93921363907421,
        "alt_km": 1165.5793791114875,
        "timestamp": "2025-12-11T07:02:23.998799+00:00",
        "meta_object_name": "NOVA 3",
        "meta_object_id": "1984-110A",
        "meta_epoch": "2025-12-10T17:39:44.936064",
        "meta_mean_motion": 13.23044354,
        "meta_eccentricity": 0.00306283,
        "meta_inclination": 90.1224,
        "meta_ra_of_asc_node": 80.5112,
        "meta_arg_of_pericenter": 337.6446,
        "meta_mean_anomaly": 175.5409,
        "meta_ephemeris_type": 0,
        "meta_classification_type": "U",
        "meta_norad_cat_id": 15362,
        "meta_element_set_no": 999,
        "meta_rev_at_epoch": 98672,
        "meta_bstar": 0.00024680094,
        "meta_mean_motion_dot": 1.12e-06,
        "meta_mean_motion_ddot": 0,
        "tle_line1": "1 15362U 84110A   25344.73593676  .00000112  00000+0  24680-3 0  9991",
        "tle_line2": "2 15362  90.1224  80.5112 0030628 337.6446 175.5409 13.23044354986728"
      },
      "geometry": {
        "type": "Point",
        "coordinates": [
          80.93921363907421,
          -73.7963651013406
        ]
      }
    },
    {
      "type": "Feature",
      "properties": {
        "norad_id": 15935,
        "name": "OSCAR 30",
        "group": "nnss",
        "lat": -61.55089579168188,
        "lon": 100.12782796781869,
        "alt_km": 1240.0526100770276,
        "timestamp": "2025-12-11T07:02:23.998809+00:00",
        "meta_object_name": "OSCAR 30",
        "meta_object_id": "1985-066A",
        "meta_epoch": "2025-12-10T19:31:00.802272",
        "meta_mean_motion": 13.36077983,
        "meta_eccentricity": 0.01694212,
        "meta_inclination": 90.1649,
        "meta_ra_of_asc_node": 99.8155,
        "meta_arg_of_pericenter": 89.2809,
        "meta_mean_anomaly": 62.2144,
        "meta_ephemeris_type": 0,
        "meta_classification_type": "U",
        "meta_norad_cat_id": 15935,
        "meta_element_set_no": 999,
        "meta_rev_at_epoch": 96427,
        "meta_bstar": 0.00025912259,
        "meta_mean_motion_dot": 1.54e-06,
        "meta_mean_motion_ddot": 0,
        "tle_line1": "1 15935U 85066A   25344.81320373  .00000154  00000+0  25912-3 0  9994",
        "tle_line2": "2 15935  90.1649  99.8155 0169421  89.2809  62.2144 13.36077983964274"
      },
      "geometry": {
        "type": "Point",
        "coordinates": [
          100.12782796781869,
          -61.55089579168188
        ]
      }
    },
    {
      "type": "Feature",
      "properties": {
        "norad_id": 15936,
        "name": "OSCAR 24",
        "group": "nnss",
        "lat": 13.5552862194222,
        "lon": 92.23663872061793,
        "alt_km": 1102.6632948195702,
        "timestamp": "2025-12-11T07:02:23.998820+00:00",
        "meta_object_name": "OSCAR 24",
        "meta_object_id": "1985-066B",
        "meta_epoch": "2025-12-10T13:03:08.404128",
        "meta_mean_motion": 13.35935362,
        "meta_eccentricity": 0.0170487,
        "meta_inclination": 90.1789,
        "meta_ra_of_asc_node": 92.2666,
        "meta_arg_of_pericenter": 96.4685,
        "meta_mean_anomaly": 276.6807,
        "meta_ephemeris_type": 0,
        "meta_classification_type": "U",
        "meta_norad_cat_id": 15936,
        "meta_element_set_no": 999,
        "meta_rev_at_epoch": 96614,
        "meta_bstar": 0.00022344,
        "meta_mean_motion_dot": 1.34e-06,
        "meta_mean_motion_ddot": 0,
        "tle_line1": "1 15936U 85066B   25344.54384727  .00000134  00000+0  22344-3 0  9992",
        "tle_line2": "2 15936  90.1789  92.2666 0170487  96.4685 276.6807 13.35935362966148"
      },
      "geometry": {
        "type": "Point",
        "coordinates": [
          92.23663872061793,
          13.5552862194222
        ]
      }
    },
    {
      "type": "Feature",
      "properties": {
        "norad_id": 17070,
        "name": "POLAR BEAR",
        "group": "nnss",
        "lat": 6.656896574064458,
        "lon": -176.12377127806127,
        "alt_km": 996.23641762442,
        "timestamp": "2025-12-11T07:02:23.998831+00:00",
        "meta_object_name": "POLAR BEAR",
        "meta_object_id": "1986-088A",
        "meta_epoch": "2025-12-10T20:34:58.723104",
        "meta_mean_motion": 13.75250249,
        "meta_eccentricity": 0.00408603,
        "meta_inclination": 89.6175,
        "meta_ra_of_asc_node": 183.8491,
        "meta_arg_of_pericenter": 124.6945,
        "meta_mean_anomaly": 246.6576,
        "meta_ephemeris_type": 0,
        "meta_classification_type": "U",
        "meta_norad_cat_id": 17070,
        "meta_element_set_no": 999,
        "meta_rev_at_epoch": 95953,
        "meta_bstar": 0.00014880802,
        "meta_mean_motion_dot": 1.55e-06,
        "meta_mean_motion_ddot": 0,
        "tle_line1": "1 17070U 86088A   25344.85762411  .00000155  00000+0  14881-3 0  9992",
        "tle_line2": "2 17070  89.6175 183.8491 0040860 124.6945 246.6576 13.75250249959531"
      },
      "geometry": {
        "type": "Point",
        "coordinates": [
          -176.12377127806127,
          6.656896574064458
        ]
      }
    },
    {
      "type": "Feature",
      "properties": {
        "norad_id": 18361,
        "name": "OSCAR 27",
        "group": "nnss",
        "lat": 62.075629548345844,
        "lon": 78.51174917195898,
        "alt_km": 1159.4898743517988,
        "timestamp": "2025-12-11T07:02:23.998841+00:00",
        "meta_object_name": "OSCAR 27",
        "meta_object_id": "1987-080A",
        "meta_epoch": "2025-12-10T12:52:14.922048",
        "meta_mean_motion": 13.44906041,
        "meta_eccentricity": 0.01027472,
        "meta_inclination": 90.3742,
        "meta_ra_of_asc_node": 79.1899,
        "meta_arg_of_pericenter": 230.1795,
        "meta_mean_anomaly": 129.0276,
        "meta_ephemeris_type": 0,
        "meta_classification_type": "U",
        "meta_norad_cat_id": 18361,
        "meta_element_set_no": 999,
        "meta_rev_at_epoch": 87527,
        "meta_bstar": 0.0002684905,
        "meta_mean_motion_dot": 1.7e-06,
        "meta_mean_motion_ddot": 0,
        "tle_line1": "1 18361U 87080A   25344.53628382  .00000170  00000+0  26849-3 0  9996",
        "tle_line2": "2 18361  90.3742  79.1899 0102747 230.1795 129.0276 13.44906041875275"
      },
      "geometry": {
        "type": "Point",
        "coordinates": [
          78.51174917195898,
          62.075629548345844
        ]
      }
    },
    {
      "type": "Feature",
      "properties": {
        "norad_id": 18362,
        "name": "OSCAR 29",
        "group": "nnss",
        "lat": 76.85041517318625,
        "lon": 78.06928794000461,
        "alt_km": 1162.8478647191405,
        "timestamp": "2025-12-11T07:02:23.998851+00:00",
        "meta_object_name": "OSCAR 29",
        "meta_object_id": "1987-080B",
        "meta_epoch": "2025-12-10T16:59:44.030400",
        "meta_mean_motion": 13.44447886,
        "meta_eccentricity": 0.01038318,
        "meta_inclination": 90.3753,
        "meta_ra_of_asc_node": 79.655,
        "meta_arg_of_pericenter": 253.0679,
        "meta_mean_anomaly": 233.2992,
        "meta_ephemeris_type": 0,
        "meta_classification_type": "U",
        "meta_norad_cat_id": 18362,
        "meta_element_set_no": 999,
        "meta_rev_at_epoch": 87482,
        "meta_bstar": 0.00023768207,
        "meta_mean_motion_dot": 1.5e-06,
        "meta_mean_motion_ddot": 0,
        "tle_line1": "1 18362U 87080B   25344.70814850  .00000150  00000+0  23768-3 0  9998",
        "tle_line2": "2 18362  90.3753  79.6550 0103831 253.0679 233.2992 13.44447886874827"
      },
      "geometry": {
        "type": "Point",
        "coordinates": [
          78.06928794000461,
          76.85041517318625
        ]
      }
    },
    {
      "type": "Feature",
      "properties": {
        "norad_id": 19070,
        "name": "OSCAR 23",
        "group": "nnss",
        "lat": -59.117897795505606,
        "lon": 16.88555447707253,
        "alt_km": 1224.9343000467989,
        "timestamp": "2025-12-11T07:02:23.998862+00:00",
        "meta_object_name": "OSCAR 23",
        "meta_object_id": "1988-033A",
        "meta_epoch": "2025-12-10T22:33:18.530784",
        "meta_mean_motion": 13.2778673,
        "meta_eccentricity": 0.01893831,
        "meta_inclination": 90.3214,
        "meta_ra_of_asc_node": 16.3368,
        "meta_arg_of_pericenter": 184.9275,
        "meta_mean_anomaly": 225.1426,
        "meta_ephemeris_type": 0,
        "meta_classification_type": "U",
        "meta_norad_cat_id": 19070,
        "meta_element_set_no": 999,
        "meta_rev_at_epoch": 82229,
        "meta_bstar": 0.00020810438,
        "meta_mean_motion_dot": 1.12e-06,
        "meta_mean_motion_ddot": 0,
        "tle_line1": "1 19070U 88033A   25344.93979781  .00000112  00000+0  20810-3 0  9997",
        "tle_line2": "2 19070  90.3214  16.3368 0189383 184.9275 225.1426 13.27786730822292"
      },
      "geometry": {
        "type": "Point",
        "coordinates": [
          16.88555447707253,
          -59.117897795505606
        ]
      }
    }
  ]
}